start=new Date('2022-11-23T00:00:00.000Z').valueOf();
sats=[{"EPOCH":"2022-11-22T22:00:00.999936","RCS_SIZE":"LARGE","MEAN_MOTION":"15.08860515","COUNTRY_CODE":"US","TLE_LINE1":"1 53605U 22104T   22326.91667824 -.00041216  00000-0 -25850-2 0  9994","LAUNCH_DATE":"2022-08-28","OBJECT_NAME":"STARLINK-4693","PERIAPSIS":"538.522","SEMIMAJOR_AXIS":"6917.818","DECAY_DATE":null,"BSTAR":"-0.00258500000000","MEAN_MOTION_DDOT":"0.0000000000000","INCLINATION":"53.2192","REV_AT_EPOCH":"130","CENTER_NAME":"EARTH","PERIOD":"95.436","MEAN_ANOMALY":"179.3235","ELEMENT_SET_NO":"999","GP_ID":"218505785","OBJECT_TYPE":"PAYLOAD","APOAPSIS":"540.843","NORAD_CAT_ID":"53605","RA_OF_ASC_NODE":"243.3569","REF_FRAME":"TEME","FILE":"3667517","SITE":"AFETR","CLASSIFICATION_TYPE":"U","ARG_OF_PERICENTER":"54.8512","TLE_LINE2":"2 53605  53.2192 243.3569 0001678  54.8512 179.3235 15.08860515  1305","OBJECT_ID":"2022-104T","EPHEMERIS_TYPE":"0","MEAN_MOTION_DOT":"-0.00041216","TIME_SYSTEM":"UTC","MEAN_ELEMENT_THEORY":"SGP4","ECCENTRICITY":"0.00016780"},{"APOAPSIS":"541.029","OBJECT_TYPE":"PAYLOAD","ELEMENT_SET_NO":"999","GP_ID":"218505949","RA_OF_ASC_NODE":"233.6824","NORAD_CAT_ID":"53606","CLASSIFICATION_TYPE":"U","SITE":"AFETR","FILE":"3667517","REF_FRAME":"TEME","ARG_OF_PERICENTER":"46.5972","EPHEMERIS_TYPE":"0","OBJECT_ID":"2022-104U","TLE_LINE2":"2 53606  53.2155 233.6824 0001883  46.5972  22.3783 15.08846263  1306","MEAN_MOTION_DOT":"-0.00038760","ECCENTRICITY":"0.00018830","MEAN_ELEMENT_THEORY":"SGP4","TIME_SYSTEM":"UTC","EPOCH":"2022-11-22T22:00:00.999936","RCS_SIZE":"LARGE","MEAN_MOTION":"15.08846263","COUNTRY_CODE":"US","OBJECT_NAME":"STARLINK-4590","LAUNCH_DATE":"2022-08-28","TLE_LINE1":"1 53606U 22104U   22326.91667824 -.00038760  00000-0 -24299-2 0  9991","DECAY_DATE":null,"SEMIMAJOR_AXIS":"6917.861","PERIAPSIS":"538.424","PERIOD":"95.437","MEAN_ANOMALY":"22.3783","CENTER_NAME":"EARTH","MEAN_MOTION_DDOT":"0.0000000000000","REV_AT_EPOCH":"130","BSTAR":"-0.00242990000000","INCLINATION":"53.2155"},{"CENTER_NAME":"EARTH","PERIOD":"95.436","MEAN_ANOMALY":"48.9608","BSTAR":"-0.00376580000000","MEAN_MOTION_DDOT":"0.0000000000000","REV_AT_EPOCH":"130","INCLINATION":"53.2176","DECAY_DATE":null,"PERIAPSIS":"538.340","SEMIMAJOR_AXIS":"6917.808","TLE_LINE1":"1 53607U 22104V   22326.91667824 -.00059764  00000-0 -37658-2 0  9992","LAUNCH_DATE":"2022-08-28","OBJECT_NAME":"STARLINK-4591","COUNTRY_CODE":"US","MEAN_MOTION":"15.08863834","RCS_SIZE":"LARGE","EPOCH":"2022-11-22T22:00:00.999936","MEAN_ELEMENT_THEORY":"SGP4","ECCENTRICITY":"0.00019260","TIME_SYSTEM":"UTC","MEAN_MOTION_DOT":"-0.00059764","EPHEMERIS_TYPE":"0","TLE_LINE2":"2 53607  53.2176 238.6410 0001926  47.3378  48.9608 15.08863834  1306","OBJECT_ID":"2022-104V","ARG_OF_PERICENTER":"47.3378","FILE":"3667517","CLASSIFICATION_TYPE":"U","SITE":"AFETR","REF_FRAME":"TEME","RA_OF_ASC_NODE":"238.6410","NORAD_CAT_ID":"53607","APOAPSIS":"541.005","GP_ID":"218506442","ELEMENT_SET_NO":"999","OBJECT_TYPE":"PAYLOAD"},{"EPOCH":"2022-11-22T22:00:00.999936","MEAN_MOTION":"15.08850113","RCS_SIZE":"LARGE","COUNTRY_CODE":"US","OBJECT_NAME":"STARLINK-4647","LAUNCH_DATE":"2022-08-28","TLE_LINE1":"1 53608U 22104W   22326.91667824 -.00022530  00000-0 -14015-2 0  9996","SEMIMAJOR_AXIS":"6917.849","PERIAPSIS":"538.471","DECAY_DATE":null,"MEAN_MOTION_DDOT":"0.0000000000000","REV_AT_EPOCH":"130","BSTAR":"-0.00140150000000","INCLINATION":"53.2166","MEAN_ANOMALY":"345.2071","PERIOD":"95.437","CENTER_NAME":"EARTH","OBJECT_TYPE":"PAYLOAD","ELEMENT_SET_NO":"999","GP_ID":"218506933","APOAPSIS":"540.958","NORAD_CAT_ID":"53608","RA_OF_ASC_NODE":"233.7583","REF_FRAME":"TEME","CLASSIFICATION_TYPE":"U","SITE":"AFETR","FILE":"3667517","ARG_OF_PERICENTER":"43.7087","OBJECT_ID":"2022-104W","TLE_LINE2":"2 53608  53.2166 233.7583 0001798  43.7087 345.2071 15.08850113  1300","EPHEMERIS_TYPE":"0","MEAN_MOTION_DOT":"-0.00022530","TIME_SYSTEM":"UTC","ECCENTRICITY":"0.00017980","MEAN_ELEMENT_THEORY":"SGP4"},{"RA_OF_ASC_NODE":"238.3551","NORAD_CAT_ID":"53609","APOAPSIS":"540.935","OBJECT_TYPE":"PAYLOAD","GP_ID":"218506113","ELEMENT_SET_NO":"999","CLASSIFICATION_TYPE":"U","SITE":"AFETR","FILE":"3667517","REF_FRAME":"TEME","EPHEMERIS_TYPE":"0","OBJECT_ID":"2022-104X","TLE_LINE2":"2 53609  53.2148 238.3551 0001694  53.4253 183.0730 15.08834087  1307","ARG_OF_PERICENTER":"53.4253","MEAN_ELEMENT_THEORY":"SGP4","ECCENTRICITY":"0.00016940","TIME_SYSTEM":"UTC","MEAN_MOTION_DOT":"-0.00018848","MEAN_MOTION":"15.08834087","RCS_SIZE":"LARGE","EPOCH":"2022-11-22T22:00:00.999936","OBJECT_NAME":"STARLINK-4660","LAUNCH_DATE":"2022-08-28","TLE_LINE1":"1 53609U 22104X   22326.91667824 -.00018848  00000-0 -11694-2 0  9994","COUNTRY_CODE":"US","PERIOD":"95.438","MEAN_ANOMALY":"183.0730","CENTER_NAME":"EARTH","MEAN_MOTION_DDOT":"0.0000000000000","REV_AT_EPOCH":"130","BSTAR":"-0.00116940000000","INCLINATION":"53.2148","DECAY_DATE":null,"SEMIMAJOR_AXIS":"6917.898","PERIAPSIS":"538.592"},{"REV_AT_EPOCH":"130","MEAN_MOTION_DDOT":"0.0000000000000","BSTAR":"-0.00426320000000","INCLINATION":"53.2168","MEAN_ANOMALY":"354.2163","PERIOD":"95.436","CENTER_NAME":"EARTH","SEMIMAJOR_AXIS":"6917.789","PERIAPSIS":"538.586","DECAY_DATE":null,"OBJECT_NAME":"STARLINK-4610","LAUNCH_DATE":"2022-08-28","TLE_LINE1":"1 53610U 22104Y   22326.91667824 -.00067556  00000-0 -42632-2 0  9992","COUNTRY_CODE":"US","RCS_SIZE":"LARGE","MEAN_MOTION":"15.08869954","EPOCH":"2022-11-22T22:00:00.999936","TIME_SYSTEM":"UTC","MEAN_ELEMENT_THEORY":"SGP4","ECCENTRICITY":"0.00015430","MEAN_MOTION_DOT":"-0.00067556","OBJECT_ID":"2022-104Y","TLE_LINE2":"2 53610  53.2168 233.6915 0001543  69.4897 354.2163 15.08869954  1300","EPHEMERIS_TYPE":"0","ARG_OF_PERICENTER":"69.4897","REF_FRAME":"TEME","SITE":"AFETR","CLASSIFICATION_TYPE":"U","FILE":"3667517","NORAD_CAT_ID":"53610","RA_OF_ASC_NODE":"233.6915","OBJECT_TYPE":"PAYLOAD","GP_ID":"218506277","ELEMENT_SET_NO":"999","APOAPSIS":"540.721"},{"EPHEMERIS_TYPE":"0","TLE_LINE2":"2 53611  53.2170 233.7973 0001651  55.2688 313.6211 15.08848554  1306","OBJECT_ID":"2022-104Z","ARG_OF_PERICENTER":"55.2688","MEAN_ELEMENT_THEORY":"SGP4","ECCENTRICITY":"0.00016510","TIME_SYSTEM":"UTC","MEAN_MOTION_DOT":"-0.00021902","RA_OF_ASC_NODE":"233.7973","NORAD_CAT_ID":"53611","APOAPSIS":"540.861","ELEMENT_SET_NO":"999","GP_ID":"218506770","OBJECT_TYPE":"PAYLOAD","FILE":"3667517","SITE":"AFETR","CLASSIFICATION_TYPE":"U","REF_FRAME":"TEME","TLE_LINE1":"1 53611U 22104Z   22326.91667824 -.00021902  00000-0 -13619-2 0  9991","LAUNCH_DATE":"2022-08-28","OBJECT_NAME":"STARLINK-4650","COUNTRY_CODE":"US","CENTER_NAME":"EARTH","MEAN_ANOMALY":"313.6211","PERIOD":"95.437","BSTAR":"-0.00136190000000","MEAN_MOTION_DDOT":"0.0000000000000","REV_AT_EPOCH":"130","INCLINATION":"53.2170","DECAY_DATE":null,"PERIAPSIS":"538.577","SEMIMAJOR_AXIS":"6917.854","RCS_SIZE":"LARGE","MEAN_MOTION":"15.08848554","EPOCH":"2022-11-22T22:00:00.999936"},{"EPHEMERIS_TYPE":"0","OBJECT_ID":"2022-104AA","TLE_LINE2":"2 53612  53.2170 233.6409 0001727  44.7720  44.2241 15.08860196  1300","ARG_OF_PERICENTER":"44.7720","ECCENTRICITY":"0.00017270","MEAN_ELEMENT_THEORY":"SGP4","TIME_SYSTEM":"UTC","MEAN_MOTION_DOT":"-0.00021308","RA_OF_ASC_NODE":"233.6409","NORAD_CAT_ID":"53612","APOAPSIS":"540.878","OBJECT_TYPE":"PAYLOAD","GP_ID":"218506607","ELEMENT_SET_NO":"999","SITE":"AFETR","CLASSIFICATION_TYPE":"U","FILE":"3667517","REF_FRAME":"TEME","OBJECT_NAME":"STARLINK-4658","LAUNCH_DATE":"2022-08-28","TLE_LINE1":"1 53612U 22104AA  22326.91667824 -.00021308  00000-0 -13239-2 0  9990","COUNTRY_CODE":"US","PERIOD":"95.436","MEAN_ANOMALY":"44.2241","CENTER_NAME":"EARTH","MEAN_MOTION_DDOT":"0.0000000000000","INCLINATION":"53.2170","BSTAR":"-0.00132390000000","REV_AT_EPOCH":"130","DECAY_DATE":null,"SEMIMAJOR_AXIS":"6917.819","PERIAPSIS":"538.489","MEAN_MOTION":"15.08860196","RCS_SIZE":"LARGE","EPOCH":"2022-11-22T22:00:00.999936"},{"CENTER_NAME":"EARTH","MEAN_ANOMALY":"351.6484","PERIOD":"95.437","MEAN_MOTION_DDOT":"0.0000000000000","BSTAR":"-0.00168210000000","REV_AT_EPOCH":"130","INCLINATION":"53.2164","DECAY_DATE":null,"PERIAPSIS":"538.589","SEMIMAJOR_AXIS":"6917.842","TLE_LINE1":"1 53613U 22104AB  22326.91667824 -.00026968  00000-0 -16821-2 0  9998","LAUNCH_DATE":"2022-08-28","OBJECT_NAME":"STARLINK-4655","COUNTRY_CODE":"US","RCS_SIZE":"LARGE","MEAN_MOTION":"15.08852417","EPOCH":"2022-11-22T22:00:00.999936","ECCENTRICITY":"0.00016170","MEAN_ELEMENT_THEORY":"SGP4","TIME_SYSTEM":"UTC","MEAN_MOTION_DOT":"-0.00026968","EPHEMERIS_TYPE":"0","TLE_LINE2":"2 53613  53.2164 233.7188 0001617  57.3135 351.6484 15.08852417  1308","OBJECT_ID":"2022-104AB","ARG_OF_PERICENTER":"57.3135","FILE":"3667517","SITE":"AFETR","CLASSIFICATION_TYPE":"U","REF_FRAME":"TEME","RA_OF_ASC_NODE":"233.7188","NORAD_CAT_ID":"53613","APOAPSIS":"540.826","ELEMENT_SET_NO":"999","GP_ID":"218505786","OBJECT_TYPE":"PAYLOAD"},{"SITE":"AFETR","CLASSIFICATION_TYPE":"U","FILE":"3667517","REF_FRAME":"TEME","RA_OF_ASC_NODE":"223.5753","NORAD_CAT_ID":"53616","APOAPSIS":"538.485","OBJECT_TYPE":"PAYLOAD","GP_ID":"218505950","ELEMENT_SET_NO":"999","MEAN_ELEMENT_THEORY":"SGP4","ECCENTRICITY":"0.00012790","TIME_SYSTEM":"UTC","MEAN_MOTION_DOT":"-0.00711108","EPHEMERIS_TYPE":"0","OBJECT_ID":"2022-104AE","TLE_LINE2":"2 53616  53.2148 223.5753 0001279  74.6953 323.5440 15.09542127  1307","ARG_OF_PERICENTER":"74.6953","MEAN_MOTION":"15.09542127","RCS_SIZE":"LARGE","EPOCH":"2022-11-22T22:00:00.999936","MEAN_ANOMALY":"323.5440","PERIOD":"95.393","CENTER_NAME":"EARTH","MEAN_MOTION_DDOT":"0.0000000000000","INCLINATION":"53.2148","BSTAR":"-0.04704700000000","REV_AT_EPOCH":"130","DECAY_DATE":null,"SEMIMAJOR_AXIS":"6915.735","PERIAPSIS":"536.716","LAUNCH_DATE":"2022-08-28","OBJECT_NAME":"STARLINK-4605","TLE_LINE1":"1 53616U 22104AE  22326.91667824 -.00711108  00000-0 -47047-1 0  9991","COUNTRY_CODE":"US"}];
